[{"OBJECT_NAME":"OBJECT H","OBJECT_ID":"2024-092H","EPOCH":"2026-03-09T22:10:57.432576","MEAN_MOTION":14.31801309,"ECCENTRICITY":0.00131217,"INCLINATION":98.6549,"RA_OF_ASC_NODE":188.1402,"ARG_OF_PERICENTER":138.5744,"MEAN_ANOMALY":221.6437,"EPHEMERIS_TYPE":0,"CLASSIFICATION_TYPE":"U","NORAD_CAT_ID":59780,"ELEMENT_SET_NO":999,"REV_AT_EPOCH":9469,"BSTAR":0.00013575326,"MEAN_MOTION_DOT":3.19e-6,"MEAN_MOTION_DDOT":0},{"OBJECT_NAME":"CZ-6A DEB","OBJECT_ID":"2022-151JJ","EPOCH":"2026-03-09T14:32:41.322912","MEAN_MOTION":14.21131045,"ECCENTRICITY":0.01024,"INCLINATION":98.8877,"RA_OF_ASC_NODE":98.2643,"ARG_OF_PERICENTER":148.1811,"MEAN_ANOMALY":212.5608,"EPHEMERIS_TYPE":0,"CLASSIFICATION_TYPE":"U","NORAD_CAT_ID":54506,"ELEMENT_SET_NO":999,"REV_AT_EPOCH":17152,"BSTAR":0.0012232,"MEAN_MOTION_DOT":2.759e-5,"MEAN_MOTION_DDOT":0}]
